ONEWEB-0156             
1 48052U 21025L   25356.76702840  .00000250  00000+0  65008-3 0  9992
2 48052  87.8986 355.2724 0001649  91.3088 268.8230 13.13467487230417
ONEWEB-0161             
1 48053U 21025M   25356.51309614  .00000129  00000+0  31906-3 0  9993
2 48053  87.8977 355.3376 0001566  91.2853 268.8455 13.13471322230310
ONEWEB-0158             
1 48054U 21025N   25356.92953255 -.00000035  00000+0 -13104-3 0  9993
2 48054  87.8984 355.2398 0002005  82.4504 277.6853 13.13469532230495
ONEWEB-0157             
1 48055U 21025P   25356.49785791 -.00000233  00000+0 -67236-3 0  9999
2 48055  87.8986 355.3316 0001342  89.0320 271.0963 13.13471128230372
ONEWEB-0162             
1 48056U 21025Q   25356.47402346  .00000032  00000+0  52224-4 0  9997
2 48056  87.8984 355.3388 0001735  93.9987 266.1340 13.13467416230345
ONEWEB-0155             
1 48057U 21025R   25356.48093402 -.00000151  00000+0 -44932-3 0  9998
2 48057  87.8981 355.3418 0001649  84.0491 276.0826 13.13468960230481
ONEWEB-0149             
1 48058U 21025S   25356.42675033 -.00000176  00000+0 -51819-3 0  9998
2 48058  87.8985 355.3463 0001792  96.3018 263.8316 13.13468194230281
ONEWEB-0148             
1 48059U 21025T   25356.38951461  .00000224  00000+0  57811-3 0  9996
2 48059  87.8982 355.3729 0001685 109.7136 250.4175 13.13470919230402
ONEWEB-0160             
1 48060U 21025U   25356.40644499 -.00000261  00000+0 -74867-3 0  9994
2 48060  87.8978 355.3669 0002526  85.3557 274.7861 13.13467729230353
ONEWEB-0163             
1 48061U 21025V   25356.92446801  .00000205  00000+0  52722-3 0  9991
2 48061  87.8990 355.2509 0001487  88.8307 271.2992 13.13468790230543
ONEWEB-0159             
1 48062U 21025W   25356.76363016  .00000303  00000+0  79369-3 0  9995
2 48062  87.8982 355.2666 0001582  93.9961 266.1349 13.13471177230449
ONEWEB-0164             
1 48063U 21025X   25356.89737930 -.00000109  00000+0 -33326-3 0  9999
2 48063  87.8992 355.2468 0001832  86.6692 273.4647 13.13468636230447
ONEWEB-0167             
1 48064U 21025Y   25356.92532121  .00000209  00000+0  53691-3 0  9995
2 48064  87.8980 355.2682 0001408  66.4555 293.6722 13.13469440230437
ONEWEB-0166             
1 48065U 21025Z   25356.94814772 -.00000276  00000+0 -79121-3 0  9995
2 48065  87.8983 355.2204 0001715  95.2311 264.9014 13.13468130230511
ONEWEB-0151             
1 48066U 21025AA  25356.94984140 -.00000468  00000+0 -13161-2 0  9997
2 48066  87.8986 355.2470 0001691  84.1928 275.9394 13.13468254230457
ONEWEB-0170             
1 48067U 21025AB  25356.42505847 -.00000187  00000+0 -54642-3 0  9992
2 48067  87.8978 355.3553 0002083  78.0618 282.0744 13.13468216230340
ONEWEB-0168             
1 48068U 21025AC  25356.94307071 -.00000164  00000+0 -48406-3 0  9995
2 48068  87.8987 355.2381 0001572  90.6650 269.4659 13.13468029230422
ONEWEB-0173             
1 48069U 21025AD  25356.93460981 -.00000007  00000+0 -55049-4 0  9993
2 48069  87.8986 355.2472 0001392  81.0903 279.0384 13.13467718230660
ONEWEB-0171             
1 48070U 21025AE  25356.43861107  .00000132  00000+0  32766-3 0  9992
2 48070  87.8970 355.3670 0001704  84.8977 275.2347 13.13472103230419
ONEWEB-0172             
1 48071U 21025AF  25356.95153109 -.00000281  00000+0 -80448-3 0  9993
2 48071  87.8988 355.2490 0001651  84.7442 275.3875 13.13468514231379
ONEWEB-0174             
1 48072U 21025AG  25356.93292095 -.00000015  00000+0 -75395-4 0  9991
2 48072  87.8977 355.2557 0001682  93.4462 266.6859 13.13467104230698
ONEWEB-0175             
1 48073U 21025AH  25356.50631590 -.00000295  00000+0 -84238-3 0  9997
2 48073  87.8982 355.3103 0001795  77.2730 282.8600 13.13470015230291
ONEWEB-0177             
1 48074U 21025AJ  25356.89906484 -.00000034  00000+0 -12861-3 0  9991
2 48074  87.8987 355.2519 0001602  92.6961 267.4352 13.13470570230537
ONEWEB-0178             
1 48075U 21025AK  25356.76546585  .00000355  00000+0  93637-3 0  9994
2 48075  87.8970 355.3188 0001623  79.7980 280.3332 13.13470931230569
ONEWEB-0108             
1 48076U 21025AL  25356.49617266 -.00000293  00000+0 -83858-3 0  9997
2 48076  87.8982 355.3221 0001923  93.3575 266.7774 13.13471867230451
ONEWEB-0169             
1 48077U 21025AM  25356.45215090  .00001469  00000+0  39877-2 0  9998
2 48077  87.8976 355.3510 0001871  94.2498 265.8845 13.13479176229102
ONEWEB-0176             
1 48210U 21031A   25356.66184433  .00000070  00000+0  15498-3 0  9994
2 48210  87.9001 324.8708 0001721  79.4917 280.6407 13.14501257225120
ONEWEB-0184             
1 48211U 21031B   25356.86323441 -.00000218  00000+0 -62246-3 0  9990
2 48211  87.9008 324.8119 0001925  56.9169 303.2146 13.14504540225129
ONEWEB-0179             
1 48212U 21031C   25356.83391307  .00000194  00000+0  48790-3 0  9993
2 48212  87.9011 324.8259 0001585  89.1674 270.9637 13.14502240225164
ONEWEB-0180             
1 48213U 21031D   25356.86640660 -.00000163  00000+0 -47518-3 0  9991
2 48213  87.9011 324.8173 0001463  78.5967 281.5327 13.14503994225051
ONEWEB-0218             
1 48214U 21031E   25356.66026366  .00000064  00000+0  13868-3 0  9990
2 48214  87.9010 324.8590 0001584  50.9824 309.1447 13.14503251225184
ONEWEB-0209             
1 48215U 21031F   25356.87751127 -.00000187  00000+0 -54004-3 0  9999
2 48215  87.9001 324.8510 0001559  86.6840 273.4468 13.14503707225219
ONEWEB-0198             
1 48216U 21031G   25356.86178061 -.00000383  00000+0 -10687-2 0  9995
2 48216  87.8995 324.8505 0001415  74.7793 285.3493 13.14502043225325
ONEWEB-0189             
1 48217U 21031H   25356.95044091 -.00004791  00000+0 -12960-1 0  9993
2 48217  87.9000 324.8081 0001449  70.6681 289.4606 13.14524338225075
ONEWEB-0196             
1 48218U 21031J   25356.92825855 -.00000006  00000+0 -50314-4 0  9999
2 48218  87.8998 324.8260 0001625  81.7542 278.3772 13.14503908225076
ONEWEB-0183             
1 48219U 21031K   25356.82676843  .00000222  00000+0  56391-3 0  9998
2 48219  87.8989 324.8495 0001834  91.5904 268.5436 13.14503944225157
ONEWEB-0185             
1 48220U 21031L   25356.92904774 -.00000042  00000+0 -14795-3 0  9992
2 48220  87.9016 324.8075 0001488  95.4826 264.6473 13.14503686225090
ONEWEB-0187             
1 48221U 21031M   25356.83297110  .00000225  00000+0  57301-3 0  9993
2 48221  87.8999 324.8665 0001507  85.1899 274.9403 13.14501073225098
ONEWEB-0192             
1 48222U 21031N   25356.87909899 -.00000076  00000+0 -23897-3 0  9991
2 48222  87.8992 324.8470 0001760  80.6409 279.4920 13.14503779225015
ONEWEB-0219             
1 48223U 21031P   25356.93459045 -.00000104  00000+0 -31614-3 0  9990
2 48223  87.9004 324.8149 0001535  87.8539 272.2767 13.14503995225220
ONEWEB-0202             
1 48224U 21031Q   25356.83945005  .00000201  00000+0  50663-3 0  9997
2 48224  87.8996 324.8454 0001419  60.1045 300.0226 13.14500934225192
ONEWEB-0204             
1 48225U 21031R   25356.94965401 -.00000517  00000+0 -14292-2 0  9991
2 48225  87.9003 324.8140 0001932  91.7357 268.3994 13.14503442225107
ONEWEB-0205             
1 48226U 21031S   25356.39225454 -.00000114  00000+0 -34082-3 0  9991
2 48226  87.9000 324.9179 0001608  85.5618 274.5696 13.14504459225049
ONEWEB-0206             
1 48227U 21031T   25356.89813935  .00000230  00000+0  58567-3 0  9995
2 48227  87.9017 324.8086 0002023  80.2939 279.8420 13.14503563225064
ONEWEB-0182             
1 48228U 21031U   25356.66501681  .00000132  00000+0  32148-3 0  9991
2 48228  87.8994 324.8817 0001839  90.2174 269.9166 13.14503917225246
ONEWEB-0186             
1 48229U 21031V   25356.82835039  .00000151  00000+0  37186-3 0  9995
2 48229  87.9010 324.8277 0001643  83.4080 276.7236 13.14503678225215
ONEWEB-0181             
1 48230U 21031W   25356.88226255 -.00000129  00000+0 -38147-3 0  9992
2 48230  87.8991 324.8695 0001618  80.4593 279.6720 13.14503582225074
ONEWEB-0188             
1 48231U 21031X   25356.46361695  .00000052  00000+0  10504-3 0  9995
2 48231  87.8996 324.9497 0001761  84.4723 275.6608 13.14500096224920
ONEWEB-0220             
1 48232U 21031Y   25356.88384636 -.00000107  00000+0 -32373-3 0  9993
2 48232  87.9013 324.8157 0001598  88.4770 271.6543 13.14504582225242
ONEWEB-0165             
1 48233U 21031Z   25356.68404911  .00000174  00000+0  43400-3 0  9996
2 48233  87.8993 324.8805 0001544  73.1732 286.9567 13.14504126225170
ONEWEB-0199             
1 48234U 21031AA  25356.89654263  .00000153  00000+0  37766-3 0  9992
2 48234  87.9002 324.8141 0001940  82.9406 277.1945 13.14501250225102
ONEWEB-0203             
1 48235U 21031AB  25356.81090520 -.00000077  00000+0 -24306-3 0  9998
2 48235  87.9000 324.8315 0001839  74.5715 285.5618 13.14503110225108
ONEWEB-0197             
1 48236U 21031AC  25356.86150595 -.00000189  00000+0 -54513-3 0  9990
2 48236  87.8997 324.8198 0001886  93.3490 266.7855 13.14501020225026
ONEWEB-0194             
1 48237U 21031AD  25356.46043667 -.00000006  00000+0 -50463-4 0  9997
2 48237  87.9005 324.9171 0001993  79.9410 280.1944 13.14500478225149
ONEWEB-0193             
1 48238U 21031AE  25356.85688727 -.00000124  00000+0 -36875-3 0  9994
2 48238  87.8999 324.8324 0002251  78.5899 281.5484 13.14500855225147
ONEWEB-0191             
1 48239U 21031AF  25356.86800842 -.00000123  00000+0 -36689-3 0  9992
2 48239  87.9004 324.8214 0001893  84.3146 275.8199 13.14502960225008
ONEWEB-0195             
1 48240U 21031AG  25356.84501000  .00000139  00000+0  33969-3 0  9999
2 48240  87.9013 324.8229 0001453  74.7770 285.3520 13.14502412224986
ONEWEB-0201             
1 48241U 21031AH  25356.83326774  .00000167  00000+0  41495-3 0  9996
2 48241  87.9000 324.8624 0001606  92.3848 267.7466 13.14503314225216
ONEWEB-0207             
1 48242U 21031AJ  25356.66105961  .00000084  00000+0  19145-3 0  9996
2 48242  87.9011 324.8608 0001662  90.1153 270.0167 13.14503121225107
